OBJECT B                
1 51825U 22019B   25172.82701202  .00015104  00000+0  36806-3 0  9990
2 51825  97.3854 249.5877 0009699  15.2325 344.9212 15.40955951183788
